NOAA 1                  
1 04793U 70106A   24196.62846880 -.00000036  00000+0  48654-4 0  9991
2 04793 101.4442 247.8330 0031022 283.3129 197.8360 12.54029636452625
NOAA 2 (ITOS-D)         
1 06235U 72082A   24196.63520916 -.00000022  00000+0  15269-3 0  9999
2 06235 102.0153 195.9234 0004511  70.5813  39.1135 12.53182407366941
NOAA 3                  
1 06920U 73086A   24196.63696275 -.00000026  00000+0  15171-3 0  9993
2 06920 102.2760 192.8652 0006421 339.5560 135.2138 12.40368485294799
NOAA 4                  
1 07529U 74089A   24196.61216277 -.00000031  00000+0  97694-4 0  9998
2 07529 101.9878 191.1263 0009438  95.4798  15.4313 12.53181511271519
NOAA 5                  
1 09057U 76077A   24196.52615668  .00000000  00000+0  34956-3 0  9998
2 09057 102.2082 169.9063 0009443 183.0126 290.7681 12.37802218167532
TIROS N                 
1 11060U 78096A   24196.57018362  .00000339  00000+0  18301-3 0  9992
2 11060  98.5303 235.9393 0011624 114.6790 245.5598 14.18848393579091
NOAA 6                  
1 11416U 79057A   24196.59359357  .00000581  00000+0  22158-3 0  9993
2 11416  98.6276 217.7827 0010214 172.6886 187.4449 14.34570783350189
NOAA 7                  
1 12553U 81059A   24196.57900724  .00000120  00000+0  81346-4 0  9993
2 12553  98.8920 255.9265 0012447 114.7302 245.5169 14.17542497225199
NOAA 8                  
1 13923U 83022A   24196.58594550  .00000321  00000+0  14366-3 0  9994
2 13923  98.7301 196.5985 0015479 149.3489 210.8600 14.29274976150683
NOAA 9                  
1 15427U 84123A   24196.58710257  .00000261  00000+0  15429-3 0  9996
2 15427  99.1182 194.6960 0014775 174.9130 295.5526 14.16619144 43924
NOAA 10                 
1 16969U 86073A   24196.60075865  .00000304  00000+0  13848-3 0  9997
2 16969  98.6417 182.2773 0010968 250.4633 222.4244 14.28647541969067
NOAA 11                 
1 19531U 88089A   24196.50078605  .00000164  00000+0  10511-3 0  9996
2 19531  98.5194 157.8640 0011594 150.9473 209.2349 14.15550941848056
NOAA 12                 
1 21263U 91032A   24196.56456761  .00000233  00000+0  11479-3 0  9993
2 21263  98.5583 187.0637 0012533 283.2435  76.7348 14.26335796724786
NOAA 13                 
1 22739U 93050A   24196.47386684  .00000259  00000+0  16085-3 0  9996
2 22739  98.6072 152.9434 0009161 342.7861  17.3000 14.13237705594106
NOAA 14                 
1 23455U 94089A   24196.60898526  .00000143  00000+0  96220-4 0  9995
2 23455  98.4327 191.0952 0008518 308.6465  51.3946 14.14408900523879
NOAA 15                 
1 25338U 98030A   24196.58964378  .00000399  00000+0  18308-3 0  9996
2 25338  98.5672 223.1429 0009244 241.1657 118.8596 14.26627175361096
NOAA 16                 
1 26536U 00055A   24196.61716019  .00000171  00000+0  11278-3 0  9995
2 26536  98.5296 234.9590 0011039 151.8033 208.3740 14.13599806524450
NOAA 17                 
1 27453U 02032A   24196.58134870  .00000374  00000+0  17692-3 0  9997
2 27453  98.7638 147.1595 0010779 225.7039 134.3257 14.25613262146859
NOAA 18                 
1 28654U 05018A   24196.53636420  .00000367  00000+0  21943-3 0  9997
2 28654  98.8739 273.2742 0013817 350.2205   9.8696 14.13252600987034
NOAA 19                 
1 33591U 09005A   24196.56246539  .00000323  00000+0  19761-3 0  9991
2 33591  99.0455 252.6495 0013361 211.3045 148.7332 14.13047040795494
SUOMI NPP               
1 37849U 11061A   24196.53169241  .00000167  00000+0  10001-3 0  9991
2 37849  98.7221 134.1017 0001338 124.5351 235.5952 14.19529023658753
NOAA 20 (JPSS-1)        
1 43013U 17073A   24196.54883943  .00000144  00000+0  89188-4 0  9991
2 43013  98.7064 134.0127 0002045 116.6822 243.4563 14.19542779344784
NOAA 21 (JPSS-2)        
1 54234U 22150A   24196.58452350  .00000179  00000+0  10581-3 0  9996
2 54234  98.7518 134.1579 0001949  77.1524 282.9870 14.19537963 86869
